STATION,DATE,SOURCE,LATITUDE,LONGITUDE,ELEVATION,NAME,REPORT_TYPE,CALL_SIGN,QUALITY_CONTROL,WND,CIG,VIS,TMP,DEW,SLP,GA1,GA2,GA3,GA4,GF1,KA1,MA1,MW1,MW2,MW3,OC1,REM,EQD,YEAR,SA1,UA1,UG1,AY1,AY2,MD1,OD1,GE1,KA2,OD2,AW1,ED1
01116099999,2001-01-08T03:50:00,4,65.95,12.4666666,17.06,"STOKKA, NO",FM-15,ENST ,V020,"020,1,N,0026,1","01500,1,9,N","011265,1,N,1","+0010,1","-0020,1","99999,9","02,1,+00300,9,99,9","02,1,+00900,9,99,9","07,1,+01500,9,99,9",,"07,99,1,99,9,99,9,99999,9,99,9,99,9",,"09980,1,99999,9","71,1",,,,MET064ENST 080350Z 02005KT 9999 -SN FEW010 SCT030 BKN055 01/M02 Q0998;,Q01+000003PRSWM1Q02    003PRSWM1,2001,,,,,,,,,,,,
01116099999,2007-02-27T00:00:00,4,65.95,12.4666666,17.06,"STOKKA, NO",FM-12,ENST ,V020,"080,1,N,0060,1","22000,1,9,N","075000,1,N,1","-0012,1","-0050,1","10021,1","00,1,+99999,9,99,9",,,,"00,99,1,00,1,00,1,99999,9,00,1,00,1",,"99999,9,10003,1","02,1",,,,SYN076AAXX  27001 01160 41989 00806 11012 21050 30003 40021 58004 70200 333 91111;,,2007,,,,"0,1,06,1","0,1,06,1","8,1,004,1,+999,9",,,,,,
01116099999,2025-04-24T01:20:00,4,65.95,12.4666666,17.06,"STOKKA SANDNESSJOEN, NO",FM-15,99999,V020,"220,1,N,0046,1","00305,1,W,N","000550,1,9,9","+0000,1","-0010,1","99999,9","09,1,+00305,1,99,9",,,,"09,99,1,09,1,99,9,00305,1,99,9,99,9",,"10230,1,99999,9",,,,,MET092METAR ENST 240120Z AUTO 22009KT 0550 R02/1300 SN VV010 00/M01 Q1023 RMK WIND 0300FT 25008KT=,,2025,,,,,,,,"9,AGL   ,+99999,+99999",,,"72,1","02,U,9999,9"
01116099999,2016-06-15T12:00:00,4,65.95,12.4666666,17.06,"STOKKA, NO",FM-12,99999,V020,"019,1,N,0057,1","99999,9,9,9","999999,9,9,9","+0130,1","+0056,1","10088,1",,,,,,"010,M,+0132,1","99999,9,10067,1",,,,"0088,1",SYN004BUFR,,2016,,,,,,"7,1,002,1,+999,9","4,06,0088,1,090",,"010,N,+0123,1","9,99,0070,1,999",,
