"STATION","DATE","SOURCE","LATITUDE","LONGITUDE","ELEVATION","NAME","REPORT_TYPE","CALL_SIGN","QUALITY_CONTROL","WND","CIG","VIS","TMP","DEW","SLP","AA1","AA2","AA3","AT1","AT2","AT3","AT4","AT5","AT6","AU1","AU2","AW1","AW2","AW3","AW4","GA1","GA2","GA3","GD1","GD2","GD3","GE1","GF1","KA1","KA2","KA3","KA4","MA1","MV1","MW1","OC1","REM","EQD"
"72344154921","2014-07-31T11:55:00","7","41.73","-98.05444","548.3","ALBION MUNICIPAL AIRPORT, NE US","FM-15","KBVN ","V020","999,9,C,0000,5","22000,5,9,N","016093,5,N,5","+0161,5","+0120,5","99999,9","24,9999,1,9",,,,,,,,,,,,,,,"04,5,+02896,5,99,1",,,"2,99,1,+02896,5,9",,,"9,AGL   ,+99999,+99999","04,99,5,99,0,99,0,02896,1,99,1,99,1","060,M,+0166,1","060,N,+0142,1",,,"10193,5,09546,5",,,,"MET10407/31/14 05:55:02 METAR KBVN 311155Z 00000KT 10SM SCT095 16/12 A3010 RMK AO2 7//// T01610120 10166 20142","D01      0ADE726"
