STATION,DATE,SOURCE,LATITUDE,LONGITUDE,ELEVATION,NAME,REPORT_TYPE,CALL_SIGN,QUALITY_CONTROL,ME1,MW3,OC1,REM,EQD,YEAR,AJ1,IA2,SA1,UA1,UG1,AA4,GA4,GA5,AW1,AW2,GE1,OD1,remarks_type_code,remarks_text,remarks_type_codes,remarks_text_blocks_json,wind_direction_variable,qc_calm_wind_detected,wind_direction_deg,wind_direction_quality_code,wind_type_code,wind_speed_ms,wind_speed_quality_code,WND__part1__qc_pass,WND__part1__qc_status,WND__part1__qc_reason,WND__part4__qc_pass,WND__part4__qc_status,WND__part4__qc_reason,ceiling_height_m,ceiling_height_quality_code,ceiling_determination_code,ceiling_cavok_code,CIG__part1__qc_pass,CIG__part1__qc_status,CIG__part1__qc_reason,CIG__quality,visibility_m,visibility_quality_code,visibility_variability_code,visibility_variability_quality_code,VIS__part1__qc_pass,VIS__part1__qc_status,VIS__part1__qc_reason,temperature_c,temperature_quality_code,TMP__qc_pass,TMP__qc_status,TMP__qc_reason,dew_point_c,dew_point_quality_code,DEW__qc_pass,DEW__qc_status,DEW__qc_reason,sea_level_pressure_hpa,sea_level_pressure_quality_code,SLP__qc_pass,SLP__qc_status,SLP__qc_reason,precip_period_hours_1,precip_amount_1,precip_condition_code_1,precip_quality_code_1,AA1__part1__qc_pass,AA1__part1__qc_status,AA1__part1__qc_reason,AA1__part2__qc_pass,AA1__part2__qc_status,AA1__part2__qc_reason,AA1__quality,precip_period_hours_2,precip_amount_2,precip_condition_code_2,precip_quality_code_2,AA2__part1__qc_pass,AA2__part1__qc_status,AA2__part1__qc_reason,AA2__part2__qc_pass,AA2__part2__qc_status,AA2__part2__qc_reason,AA2__quality,precip_period_hours_3,precip_amount_3,precip_condition_code_3,precip_quality_code_3,AA3__part1__qc_pass,AA3__part1__qc_status,AA3__part1__qc_reason,AA3__part2__qc_pass,AA3__part2__qc_status,AA3__part2__qc_reason,AA3__quality,past_weather_condition_code_1,AY1__part2,past_weather_period_hours_1,AY1__part4,past_weather_condition_code_2,AY2__part2,past_weather_period_hours_2,AY2__part4,cloud_layer_coverage_1,cloud_layer_coverage_quality_code_1,cloud_layer_base_height_m_1,cloud_layer_base_height_quality_code_1,cloud_layer_type_code_1,cloud_layer_type_quality_code_1,GA1__part1__qc_pass,GA1__part1__qc_status,GA1__part1__qc_reason,GA1__part3__qc_pass,GA1__part3__qc_status,GA1__part3__qc_reason,cloud_layer_coverage_2,cloud_layer_coverage_quality_code_2,cloud_layer_base_height_m_2,cloud_layer_base_height_quality_code_2,cloud_layer_type_code_2,cloud_layer_type_quality_code_2,GA2__part1__qc_pass,GA2__part1__qc_status,GA2__part1__qc_reason,GA2__part3__qc_pass,GA2__part3__qc_status,GA2__part3__qc_reason,cloud_layer_coverage_3,cloud_layer_coverage_quality_code_3,cloud_layer_base_height_m_3,cloud_layer_base_height_quality_code_3,cloud_layer_type_code_3,cloud_layer_type_quality_code_3,GA3__part1__qc_pass,GA3__part1__qc_status,GA3__part1__qc_reason,GA3__part3__qc_pass,GA3__part3__qc_status,GA3__part3__qc_reason,cloud_total_coverage,cloud_opaque_coverage,cloud_total_coverage_quality_code,cloud_lowest_coverage,cloud_lowest_coverage_quality_code,cloud_low_genus_code,cloud_low_genus_quality_code,cloud_lowest_base_height_m,cloud_lowest_base_height_quality_code,cloud_mid_genus_code,cloud_mid_genus_quality_code,cloud_high_genus_code,cloud_high_genus_quality_code,GF1__part1__qc_pass,GF1__part1__qc_status,GF1__part1__qc_reason,GF1__part2__qc_pass,GF1__part2__qc_status,GF1__part2__qc_reason,GF1__part4__qc_pass,GF1__part4__qc_status,GF1__part4__qc_reason,GF1__part8__qc_pass,GF1__part8__qc_status,GF1__part8__qc_reason,ground_surface_observation_code,ground_surface_observation_quality_code,IA1__quality,extreme_temp_period_hours_1,extreme_temp_type_1,extreme_temp_c_1,extreme_temp_quality_code_1,KA1__part1__qc_pass,KA1__part1__qc_status,KA1__part1__qc_reason,KA1__part3__qc_pass,KA1__part3__qc_status,KA1__part3__qc_reason,KA1__quality,extreme_temp_period_hours_2,extreme_temp_type_2,extreme_temp_c_2,extreme_temp_quality_code_2,KA2__part1__qc_pass,KA2__part1__qc_status,KA2__part1__qc_reason,KA2__part3__qc_pass,KA2__part3__qc_status,KA2__part3__qc_reason,KA2__quality,altimeter_setting_hpa,altimeter_quality_code,station_pressure_hpa,station_pressure_quality_code,MA1__part1__qc_pass,MA1__part1__qc_status,MA1__part1__qc_reason,MA1__part3__qc_pass,MA1__part3__qc_status,MA1__part3__qc_reason,pressure_tendency_code,pressure_tendency_quality_code,pressure_change_3hr_hpa,pressure_change_3hr_quality_code,pressure_change_24hr_hpa,pressure_change_24hr_quality_code,MD1__part3__qc_pass,MD1__part3__qc_status,MD1__part3__qc_reason,MD1__part5__qc_pass,MD1__part5__qc_status,MD1__part5__qc_reason,present_weather_code_1,MW1__part2,MW1__quality,present_weather_code_2,MW2__part2,MW2__quality,qc_control_invalid_latitude,qc_control_invalid_longitude,qc_control_invalid_date,qc_control_invalid_elevation,qc_control_invalid_call_sign,qc_control_invalid_source,qc_control_invalid_report_type,qc_control_invalid_quality_control,qc_domain_invalid_CONTROL,row_has_any_usable_metric,usable_metric_count,usable_metric_fraction
78724099999,2001-01-02T16:00:00,4,13.3,-87.1833333,48.0,"CHOLUTECA, HO",FM-15,MHCH ,V020,,,,MET061MHCH 021600Z 03017KT 9999 FEW030TCU SCT080 31/18 Q1013 TCU E;,Q01+000000PRSWM2,2001,,,,,,,,,,,,,MET,MHCH 021600Z 03017KT 9999 FEW030TCU SCT080 31/18 Q1013 TCU E;,MET,"[""MHCH 021600Z 03017KT 9999 FEW030TCU SCT080 31/18 Q1013 TCU E;""]",False,False,30.0,1.0,N,8.7,1.0,True,PASS,,True,PASS,,22000.0,1.0,,N,True,PASS,,1,11265.0,1.0,N,1.0,True,PASS,,31.0,1,True,PASS,,18.0,1,True,PASS,,,9,False,MISSING,SENTINEL_MISSING,,,,,,,,,,,,,,,,,,,,,,,,,,,,,,,,,,,,,,,,,,2.0,1.0,900.0,9.0,2.0,9.0,True,PASS,,True,PASS,,2.0,1.0,2400.0,9.0,,9.0,True,PASS,,True,PASS,,,,,,,,,,,,,,4.0,,1.0,,9.0,,9.0,,9.0,,9.0,,9.0,True,PASS,,False,MISSING,SENTINEL_MISSING,False,MISSING,SENTINEL_MISSING,False,MISSING,SENTINEL_MISSING,,,,,,,,,,,,,,,,,,,,,,,,,,1012.9,1.0,,9.0,True,PASS,,False,MISSING,SENTINEL_MISSING,,,,,,,,,,,,,00,1.0,1,,,,False,False,True,False,False,False,False,True,True,True,12,0.3870967741935484
78724099999,2001-01-04T08:00:00,4,13.3,-87.1833333,48.0,"CHOLUTECA, HO",FM-15,MHCH ,V020,,,,MET033MHCH 040800Z 07011KT 26/16 Q1014;,Q01+000000PRSWM2,2001,,,,,,,,,,,,,MET,MHCH 040800Z 07011KT 26/16 Q1014;,MET,"[""MHCH 040800Z 07011KT 26/16 Q1014;""]",False,False,70.0,1.0,N,5.7,1.0,True,PASS,,True,PASS,,22000.0,1.0,,N,True,PASS,,1,,9.0,N,1.0,False,MISSING,SENTINEL_MISSING,,9,False,MISSING,SENTINEL_MISSING,,9,False,MISSING,SENTINEL_MISSING,,9,False,MISSING,SENTINEL_MISSING,,,,,,,,,,,,,,,,,,,,,,,,,,,,,,,,,,,,,,,,,,,,,,,,,,,,,,,,,,,,,,,,,,,,,,,,,,,,,,,,,,,,,,,,,,,,,,,,,,,,,,,,,,,,,,,,,,,,,,,,,,,,,,,,,,,,,,,,,,,,,,,,,,,,,,00,1.0,1,,,,False,False,True,False,False,False,False,True,True,True,3,0.0967741935483871
78724099999,2001-01-09T00:00:00,4,13.3,-87.1833333,48.0,"CHOLUTECA, HO",FM-12,MHCH ,V020,,,,SYN118AAXX  09004 78724 32578 52008 10293 20172 30024 40080 55003 82101 333 10353 20204 30/// 56000 58006 70000 82830 83075;,,2001,,,,,,,,,,,,,SYN,AAXX  09004 78724 32578 52008 10293 20172 30024 40080 55003 82101 333 10353 20204 30/// 56000 58006 70000 82830 83075;,SYN,"[""AAXX  09004 78724 32578 52008 10293 20172 30024 40080 55003 82101 333 10353 20204 30/// 56000 58006 70000 82830 83075;""]",False,False,200.0,1.0,N,4.1,1.0,True,PASS,,True,PASS,,22000.0,1.0,C,N,True,PASS,,1,28000.0,1.0,N,1.0,True,PASS,,29.3,1,True,PASS,,17.2,1,True,PASS,,1008.0,1,True,PASS,,24.0,0.0,,1.0,True,PASS,,True,PASS,,1,,,,,,,,,,,,,,,,,,,,,,,,,,,,,,,2.0,1.0,900.0,9.0,8.0,9.0,True,PASS,,True,PASS,,,,,,,,,,,,,,,,,,,,,,,,,,5.0,,1.0,2.0,1.0,1.0,1.0,800.0,1.0,0.0,1.0,1.0,1.0,True,PASS,,False,MISSING,SENTINEL_MISSING,True,PASS,,True,PASS,,1.0,9.0,9,12.0,M,35.3,1.0,True,PASS,,True,PASS,,1,18.0,N,20.4,1.0,True,PASS,,True,PASS,,1,,9.0,1002.4,1.0,False,MISSING,SENTINEL_MISSING,True,PASS,,5.0,1.0,0.3,1.0,,1.0,True,PASS,,False,INVALID,MALFORMED_TOKEN,,,,,,,False,False,True,False,False,False,False,True,True,True,20,0.6451612903225806
78724099999,2001-01-09T05:00:00,4,13.3,-87.1833333,48.0,"CHOLUTECA, HO",FM-15,MHCH ,V020,,,,MET045MHCH 090500Z 00000KT 9999 FEW030 22/17 Q1013;,Q01+000000PRSWM2,2001,,,,,,,,,,,,,MET,MHCH 090500Z 00000KT 9999 FEW030 22/17 Q1013;,MET,"[""MHCH 090500Z 00000KT 9999 FEW030 22/17 Q1013;""]",False,False,,9.0,C,0.0,1.0,False,MISSING,SENTINEL_MISSING,True,PASS,,22000.0,1.0,,N,True,PASS,,1,11265.0,1.0,N,1.0,True,PASS,,22.0,1,True,PASS,,17.0,1,True,PASS,,,9,False,MISSING,SENTINEL_MISSING,,,,,,,,,,,,,,,,,,,,,,,,,,,,,,,,,,,,,,,,,,2.0,1.0,900.0,9.0,,9.0,True,PASS,,True,PASS,,,,,,,,,,,,,,,,,,,,,,,,,,2.0,,1.0,,9.0,,9.0,,9.0,,9.0,,9.0,True,PASS,,False,MISSING,SENTINEL_MISSING,False,MISSING,SENTINEL_MISSING,False,MISSING,SENTINEL_MISSING,,,,,,,,,,,,,,,,,,,,,,,,,,1012.9,1.0,,9.0,True,PASS,,False,MISSING,SENTINEL_MISSING,,,,,,,,,,,,,00,1.0,1,,,,False,False,True,False,False,False,False,True,True,True,9,0.2903225806451613
78724099999,2002-09-18T00:00:00,4,13.3,-87.1833333,48.0,"CHOLUTECA, HO",SY-MT,MHCH ,V020,,,,,Q01    003PRSWM1Q02 +02532ATMN  ,2002,,,,,,,,,,,,,,,,,False,False,340.0,1.0,N,2.6,1.0,True,PASS,,True,PASS,,2400.0,1.0,,N,True,PASS,,1,10000.0,1.0,N,1.0,True,PASS,,23.5,1,True,PASS,,21.3,1,True,PASS,,1008.2,1,True,PASS,,3.0,6.1,,1.0,True,PASS,,True,PASS,,1,6.0,6.1,,1.0,True,PASS,,True,PASS,,1,24.0,6.1,,1.0,True,PASS,,True,PASS,,1,9.0,1.0,6.0,1.0,6.0,1.0,6.0,1.0,2.0,1.0,270.0,9.0,,9.0,True,PASS,,True,PASS,,4.0,1.0,900.0,9.0,9.0,9.0,True,PASS,,True,PASS,,7.0,1.0,2400.0,9.0,,9.0,True,PASS,,True,PASS,,7.0,,1.0,4.0,1.0,9.0,1.0,250.0,1.0,2.0,1.0,,9.0,True,PASS,,False,MISSING,SENTINEL_MISSING,True,PASS,,True,PASS,,9.0,9.0,9,,M,32.8,1.0,False,MISSING,SENTINEL_MISSING,True,PASS,,1,,N,,9.0,False,MISSING,SENTINEL_MISSING,False,MISSING,SENTINEL_MISSING,9,1009.1,1.0,1002.5,1.0,True,PASS,,True,PASS,,3.0,1.0,0.4,1.0,,1.0,True,PASS,,False,INVALID,MALFORMED_TOKEN,17,1.0,1,95,1.0,1,False,False,True,False,False,False,False,True,True,True,26,0.8387096774193549
78724099999,2002-09-19T06:00:00,4,13.3,-87.1833333,48.0,"CHOLUTECA, HO",SY-MT,MHCH ,V020,,,,,Q01+101803APOA  Q02    003PRSWM1,2002,,,,,,,,,,,,,,,,,False,False,50.0,1.0,N,3.1,1.0,True,PASS,,True,PASS,,750.0,1.0,,N,True,PASS,,1,15000.0,1.0,N,1.0,True,PASS,,22.9,1,True,PASS,,21.8,1,True,PASS,,1012.1,1,True,PASS,,3.0,57.9,,1.0,True,PASS,,True,PASS,,1,6.0,58.9,,1.0,True,PASS,,True,PASS,,1,,,,,,,,,,,,9.0,1.0,6.0,1.0,6.0,1.0,6.0,1.0,2.0,1.0,180.0,9.0,,9.0,True,PASS,,True,PASS,,7.0,1.0,750.0,9.0,,9.0,True,PASS,,True,PASS,,7.0,1.0,2400.0,9.0,,9.0,True,PASS,,True,PASS,,8.0,,1.0,5.0,1.0,9.0,1.0,800.0,1.0,2.0,1.0,,9.0,True,PASS,,False,MISSING,SENTINEL_MISSING,True,PASS,,True,PASS,,11.0,9.0,9,,M,31.8,1.0,False,MISSING,SENTINEL_MISSING,True,PASS,,1,,N,22.9,1.0,False,MISSING,SENTINEL_MISSING,True,PASS,,1,1018.0,2.0,1006.3,1.0,True,PASS,,True,PASS,,0.0,1.0,1.5,1.0,,1.0,True,PASS,,False,INVALID,MALFORMED_TOKEN,51,1.0,1,95,1.0,1,False,False,True,False,False,False,False,True,True,True,25,0.8064516129032258
78724099999,2004-09-07T00:00:00,4,13.3,-87.1833333,48.0,"CHOLUTECA, HO",SY-MT,MHCH ,V020,,,,,Q01    003PRSWM1,2004,,,,,,,,,,,,,,,,,False,False,220.0,1.0,N,2.6,1.0,True,PASS,,True,PASS,,6000.0,1.0,,N,True,PASS,,1,18000.0,1.0,N,1.0,True,PASS,,26.8,1,True,PASS,,22.0,1,True,PASS,,1005.3,1,True,PASS,,6.0,2.0,,1.0,True,PASS,,True,PASS,,1,24.0,2.3,,1.0,True,PASS,,True,PASS,,1,,,,,,,,,,,,9.0,1.0,6.0,1.0,5.0,1.0,6.0,1.0,2.0,1.0,900.0,9.0,9.0,9.0,True,PASS,,True,PASS,,2.0,1.0,900.0,9.0,,9.0,True,PASS,,True,PASS,,4.0,1.0,6000.0,9.0,,9.0,True,PASS,,True,PASS,,7.0,,1.0,3.0,1.0,9.0,1.0,800.0,1.0,0.0,1.0,2.0,1.0,True,PASS,,False,MISSING,SENTINEL_MISSING,True,PASS,,True,PASS,,9.0,9.0,9,,M,32.7,1.0,False,MISSING,SENTINEL_MISSING,True,PASS,,1,,N,23.4,1.0,False,MISSING,SENTINEL_MISSING,True,PASS,,1,1006.1,1.0,999.8,1.0,True,PASS,,True,PASS,,3.0,1.0,0.2,1.0,,1.0,True,PASS,,False,INVALID,MALFORMED_TOKEN,17,1.0,1,21,1.0,1,False,False,True,False,False,False,False,True,True,True,25,0.8064516129032258
78724099999,2008-07-03T00:00:00,4,13.3,-87.1833333,48.0,"CHOLUTECA, HO",SY-MT,MHCH ,V020,,,,SYN136AAXX  03004 78724 01265 70000 10236 20222 30048 40105 52014 60341 79596 86920 333 09200 10332 20236 31/// 58021 70347 82704 84930 85457;MET082METAR MHCH 030000Z 00000KT 9999 TSRA FEW004 SCT030CB BKN070 24/22 CB TS PCPN S SW;,,2008,,,,,,,,,,,,,SYN,AAXX  03004 78724 01265 70000 10236 20222 30048 40105 52014 60341 79596 86920 333 09200 10332 20236 31/// 58021 70347 82704 84930 85457;,"SYN,MET","[""AAXX  03004 78724 01265 70000 10236 20222 30048 40105 52014 60341 79596 86920 333 09200 10332 20236 31/// 58021 70347 82704 84930 85457;"", ""METAR MHCH 030000Z 00000KT 9999 TSRA FEW004 SCT030CB BKN070 24/22 CB TS PCPN S SW;""]",False,False,,9.0,C,0.0,1.0,False,MISSING,SENTINEL_MISSING,True,PASS,,900.0,1.0,C,N,True,PASS,,1,15000.0,1.0,N,1.0,True,PASS,,23.6,1,True,PASS,,22.2,1,True,PASS,,1010.5,1,True,PASS,,6.0,34.0,,1.0,True,PASS,,True,PASS,,1,24.0,34.7,,1.0,True,PASS,,True,PASS,,1,,,,,,,,,,,,9.0,1.0,6.0,1.0,6.0,1.0,6.0,1.0,2.0,5.0,120.0,1.0,,9.0,True,PASS,,True,PASS,,4.0,5.0,900.0,1.0,9.0,5.0,True,PASS,,True,PASS,,7.0,5.0,2100.0,1.0,,9.0,True,PASS,,True,PASS,,7.0,,1.0,6.0,1.0,9.0,1.0,150.0,1.0,2.0,1.0,0.0,1.0,True,PASS,,False,MISSING,SENTINEL_MISSING,True,PASS,,True,PASS,,9.0,9.0,9,12.0,M,33.2,1.0,True,PASS,,True,PASS,,1,18.0,N,23.6,1.0,True,PASS,,True,PASS,,1,,9.0,1004.8,1.0,False,MISSING,SENTINEL_MISSING,True,PASS,,2.0,1.0,1.4,1.0,,1.0,True,PASS,,False,INVALID,MALFORMED_TOKEN,81,1.0,1,95,1.0,1,False,False,True,False,False,False,False,True,True,True,25,0.8064516129032258
