"STATION","DATE","SOURCE","LATITUDE","LONGITUDE","ELEVATION","NAME","REPORT_TYPE","CALL_SIGN","QUALITY_CONTROL","WND","CIG","VIS","TMP","DEW","SLP","AA1","AA2","AA3","AT1","AT2","AT3","AT4","AT5","AU1","AU2","AW1","AW2","AW3","GA1","GA2","GA3","GD1","GD2","GD3","GE1","GF1","KA1","KA2","KA3","KA4","MA1","MV1","MW1","OC1","REM","EQD"
"72214904899","2014-02-21T11:55:00","7","41.35167","-89.15306","199.3","PERU IL VALLEY REGIONAL WALTER A DUNCAN FIELD AIRPORT, IL US","FM-15","KVYS ","V020","260,5,N,0139,5","00518,5,M,N","011265,5,N,5","-0015,5","-0048,5","99999,9","24,9999,1,9",,,,,,,,,,,,,"08,5,+00518,5,99,1",,,"4,99,1,+00518,5,9",,,,"99,99,9,99,0,99,0,00518,1,99,1,99,1","060,M,+0026,1","060,N,-0015,1",,,"10017,5,09782,5",,,"0196,5","MET10802/21/14 05:55:02 METAR KVYS 211155Z 26027G38KT 7SM OVC017 M01/M05 A2958 RMK AO2 7//// T10151048 10026 21015",
